NORAD_CAT_ID,OBJECT_NAME,OBJECT_TYPE,EPOCH,MEAN_MOTION,ECCENTRICITY,INCLINATION,RA_OF_ASC_NODE,ARG_OF_PERICENTER,MEAN_ANOMALY,BSTAR,MEAN_MOTION_DOT,MEAN_MOTION_DDOT,TLE_LINE0,TLE_LINE1,TLE_LINE2,SEMIMAJOR_AXIS,PERIOD,APOGEE,PERIGEE,DECAYED
55929.0,STARLINK-5898,PAYLOAD,2023-12-15 21:45:25,14.98341607,0.0002205,69.9983,198.6835,275.7711,84.3197,-0.00031674,-3.871e-05,0.0,0 STARLINK-5898,1 55929U 23037R   23349.90654578 -.00003871  00000-0 -31674-3 0  9995,2 55929  69.9983 198.6835 0002205 275.7711  84.3197 14.98341607 41443,6950.157,96.106,573.555,570.489,0.0
55929.0,STARLINK-5898,PAYLOAD,2023-12-15 23:21:33,14.98325978,0.0002425,69.9982,198.5151,275.9046,84.1837,-6.5763e-05,-8.77e-06,0.0,0 STARLINK-5898,1 55929U 23037R   23349.97330892 -.00000877  00000-0 -65763-4 0  9992,2 55929  69.9982 198.5151 0002425 275.9046  84.1837 14.98325978 41452,6950.205,96.107,573.756,570.385,0.0
55929.0,STARLINK-5898,PAYLOAD,2023-12-16 20:11:18,14.98332358,0.0002656,69.9978,196.3262,280.0054,80.0805,-8.6335e-06,-1.96e-06,0.0,0 STARLINK-5898,1 55929U 23037R   23350.84118423 -.00000196  00000-0 -86335-5 0  9997,2 55929  69.9978 196.3262 0002656 280.0054  80.0805 14.98332358 41920,6950.186,96.107,573.897,570.205,0.0
55929.0,STARLINK-5898,PAYLOAD,2023-12-16 21:47:26,14.98334058,0.0002634,69.9978,196.158,279.9916,80.0946,-2.666e-05,-4.11e-06,0.0,0 STARLINK-5898,1 55929U 23037R   23350.90794340 -.00000411  00000-0 -26660-4 0  9996,2 55929  69.9978 196.1580 0002634 279.9916  80.0946 14.98334058 41599,6950.18,96.107,573.876,570.215,0.0
55929.0,STARLINK-5898,PAYLOAD,2023-12-17 13:48:47,14.98325472,0.0002572,69.9982,194.4755,278.3579,81.7288,3.6946e-05,3.48e-06,0.0,0 STARLINK-5898,1 55929U 23037R   23351.57554781  .00000348  00000-0  36946-4 0  9998,2 55929  69.9982 194.4755 0002572 278.3579  81.7288 14.98325472 41696,6950.207,96.107,573.859,570.284,0.0
55929.0,STARLINK-5898,PAYLOAD,2023-12-17 20:13:19,14.9832595,0.0002584,69.9983,193.802,279.4477,80.6389,5.6794e-05,5.85e-06,0.0,0 STARLINK-5898,1 55929U 23037R   23351.84258756  .00000585  00000-0  56794-4 0  9997,2 55929  69.9983 193.8020 0002584 279.4477  80.6389 14.98325950 42071,6950.205,96.107,573.866,570.274,0.0
55929.0,STARLINK-5898,PAYLOAD,2023-12-17 21:49:27,14.98326725,0.0002463,69.9986,193.6345,277.236,82.8519,7.8088e-05,8.39e-06,0.0,0 STARLINK-5898,1 55929U 23037R   23351.90934679  .00000839  00000-0  78088-4 0  9991,2 55929  69.9986 193.6345 0002463 277.2360  82.8519 14.98326725 41748,6950.203,96.107,573.78,570.356,0.0
55929.0,STARLINK-5898,PAYLOAD,2023-12-18 13:50:47,14.9833271,0.0002314,69.9988,191.9523,272.1619,87.9275,3.7383e-05,3.53e-06,0.0,0 STARLINK-5898,1 55929U 23037R   23352.57694338  .00000353  00000-0  37383-4 0  9994,2 55929  69.9988 191.9523 0002314 272.1619  87.9275 14.98332710 41842,6950.185,96.107,573.658,570.441,0.0
55929.0,STARLINK-5898,PAYLOAD,2023-12-18 18:39:12,14.98333085,0.0002304,69.9989,191.4473,271.9273,88.1622,4.1277e-05,4e-06,0.0,0 STARLINK-5898,1 55929U 23037R   23352.77722265  .00000400  00000-0  41277-4 0  9997,2 55929  69.9989 191.4473 0002304 271.9273  88.1622 14.98333085 42211,6950.183,96.107,573.65,570.447,0.0
55929.0,STARLINK-5898,PAYLOAD,2023-12-18 21:51:28,14.98333247,0.0002307,69.9988,191.1105,272.1977,87.8918,4.2627e-05,4.16e-06,0.0,0 STARLINK-5898,1 55929U 23037R   23352.91074232  .00000416  00000-0  42627-4 0  9994,2 55929  69.9988 191.1105 0002307 272.1977  87.8918 14.98333247 41893,6950.183,96.107,573.651,570.444,0.0
55929.0,STARLINK-5898,PAYLOAD,2023-12-19 13:52:48,14.98330886,0.0002249,69.9988,189.4279,269.6016,90.4885,2.8798e-05,2.51e-06,0.0,0 STARLINK-5898,1 55929U 23037R   23353.57834322  .00000251  00000-0  28798-4 0  9991,2 55929  69.9988 189.4279 0002249 269.6016  90.4885 14.98330886 41995,6950.19,96.107,573.618,570.492,0.0
55929.0,STARLINK-5898,PAYLOAD,2023-12-19 20:17:20,14.98350543,0.0001846,69.9989,188.7536,282.4985,77.5968,-0.00035911,-4.377e-05,0.0,0 STARLINK-5898,1 55929U 23037R   23353.84538171 -.00004377  00000-0 -35911-3 0  9993,2 55929  69.9989 188.7536 0001846 282.4985  77.5968 14.98350543 42377,6950.129,96.106,573.277,570.711,0.0
55929.0,STARLINK-5898,PAYLOAD,2023-12-19 23:29:36,14.98380033,0.0002106,69.9989,188.4175,281.3036,78.7887,-0.00086601,-0.00010424,0.0,0 STARLINK-5898,1 55929U 23037R   23353.97889225 -.00010424  00000-0 -86601-3 0  9998,2 55929  69.9989 188.4175 0002106 281.3036  78.7887 14.98380033 42390,6950.038,96.104,573.367,570.439,0.0
55929.0,STARLINK-5898,PAYLOAD,2023-12-20 13:54:49,14.98331959,0.0002384,69.9987,186.9028,266.8807,93.2079,-1.5689e-05,-2.8e-06,0.0,0 STARLINK-5898,1 55929U 23037R   23354.57974280 -.00000280  00000-0 -15689-4 0  9999,2 55929  69.9987 186.9028 0002384 266.8807  93.2079 14.98331959 42141,6950.187,96.107,573.709,570.395,0.0
55929.0,STARLINK-5898,PAYLOAD,2023-12-20 20:19:21,14.98332607,0.0002391,69.9988,186.2294,266.977,93.1115,-6.2746e-06,-1.68e-06,0.0,0 STARLINK-5898,1 55929U 23037R   23354.84678169 -.00000168  00000-0 -62746-5 0  9998,2 55929  69.9988 186.2294 0002391 266.9770  93.1115 14.98332607 42521,6950.185,96.107,573.712,570.388,0.0
55929.0,STARLINK-5898,PAYLOAD,2023-12-20 21:55:29,14.98332818,0.0002389,69.9988,186.0612,267.0071,93.0814,-3.3562e-06,-1.33e-06,0.0,0 STARLINK-5898,1 55929U 23037R   23354.91354143 -.00000133  00000-0 -33562-5 0  9995,2 55929  69.9988 186.0612 0002389 267.0071  93.0814 14.98332818 42198,6950.184,96.107,573.71,570.389,0.0
55929.0,STARLINK-5898,PAYLOAD,2023-12-21 13:56:50,14.98330318,0.0002402,69.9989,184.378,267.9474,92.141,2.8667e-05,2.49e-06,0.0,0 STARLINK-5898,1 55929U 23037R   23355.58114150  .00000249  00000-0  28667-4 0  9996,2 55929  69.9989 184.3780 0002402 267.9474  92.1410 14.98330318 42294,6950.192,96.107,573.726,570.387,0.0
55929.0,STARLINK-5898,PAYLOAD,2023-12-21 21:57:30,14.98330902,0.000239,69.999,183.5365,267.4919,92.5966,3.3979e-05,3.13e-06,0.0,0 STARLINK-5898,1 55929U 23037R   23355.91494083  .00000313  00000-0  33979-4 0  9993,2 55929  69.9990 183.5365 0002390 267.4919  92.5966 14.98330902 42346,6950.19,96.107,573.716,570.394,0.0
55929.0,STARLINK-5898,PAYLOAD,2023-12-22 13:58:51,14.98329923,0.0002359,69.9991,181.8535,266.6411,93.4478,1.1653e-05,4.6e-07,0.0,0 STARLINK-5898,1 55929U 23037R   23356.58254218  .00000046  00000-0  11653-4 0  9999,2 55929  69.9991 181.8535 0002359 266.6411  93.4478 14.98329923 42440,6950.193,96.107,573.698,570.419,0.0
55929.0,STARLINK-5898,PAYLOAD,2023-12-22 21:59:32,14.98329052,0.0002374,69.9991,181.0119,266.9603,93.1285,9.59e-07,-8.1e-07,0.0,0 STARLINK-5898,1 55929U 23037R   23356.91634299 -.00000081  00000-0  95900-6 0  9996,2 55929  69.9991 181.0119 0002374 266.9603  93.1285 14.98329052 42494,6950.196,96.107,573.711,570.411,0.0
55929.0,STARLINK-5898,PAYLOAD,2023-12-23 12:24:48,14.98293841,0.0002541,69.9994,179.4975,263.3868,96.7002,-0.00033996,-4.143e-05,0.0,0 STARLINK-5898,1 55929U 23037R   23357.51722269 -.00004143  00000-0 -33996-3 0  9996,2 55929  69.9994 179.4975 0002541 263.3868  96.7002 14.98293841 42928,6950.305,96.109,573.936,570.404,0.0
55929.0,STARLINK-5898,PAYLOAD,2023-12-23 14:00:53,14.98332243,0.0002366,69.9992,179.3287,243.7348,116.3568,8.9083e-05,9.7e-06,0.0,0 STARLINK-5898,1 55929U 23037R   23357.58395016  .00000970  00000-0  89083-4 0  9990,2 55929  69.9992 179.3287 0002366 243.7348 116.3568 14.98332243 42590,6950.186,96.107,573.695,570.407,0.0
55929.0,STARLINK-5898,PAYLOAD,2023-12-23 18:49:17,14.98327858,0.0002632,69.9994,178.824,259.575,100.5112,4.9699e-05,5e-06,0.0,0 STARLINK-5898,1 55929U 23037R   23357.78423468  .00000500  00000-0  49699-4 0  9993,2 55929  69.9994 178.8240 0002632 259.5750 100.5112 14.98327858 42960,6950.2,96.107,573.894,570.235,0.0
55929.0,STARLINK-5898,PAYLOAD,2023-12-23 22:01:34,14.98327786,0.0002704,69.9992,178.4869,262.9228,97.1624,4.8149e-05,4.82e-06,0.0,0 STARLINK-5898,1 55929U 23037R   23357.91775554  .00000482  00000-0  48149-4 0  9992,2 55929  69.9992 178.4869 0002704 262.9228  97.1624 14.98327786 42643,6950.2,96.107,573.944,570.185,0.0
55929.0,STARLINK-5898,PAYLOAD,2023-12-24 14:02:54,14.983317,0.000295,69.9986,176.8025,270.9157,89.1664,0.00011926,1.33e-05,0.0,0 STARLINK-5898,1 55929U 23037R   23358.58535242  .00001330  00000-0  11926-3 0  9999,2 55929  69.9986 176.8025 0002950 270.9157  89.1664 14.98331700 42742,6950.188,96.107,574.103,570.002,0.0
55929.0,STARLINK-5898,PAYLOAD,2023-12-24 20:27:26,14.98334041,0.0002916,69.9989,176.1296,269.5138,90.5687,0.00014246,1.607e-05,0.0,0 STARLINK-5898,1 55929U 23037R   23358.85239028  .00001607  00000-0  14246-3 0  9997,2 55929  69.9989 176.1296 0002916 269.5138  90.5687 14.98334041 43128,6950.18,96.107,574.072,570.019,0.0
55929.0,STARLINK-5898,PAYLOAD,2023-12-24 22:03:34,14.98334961,0.0002915,69.9989,175.9615,269.3685,90.714,0.00015135,1.714e-05,0.0,0 STARLINK-5898,1 55929U 23037R   23358.91914954  .00001714  00000-0  15135-3 0  9999,2 55929  69.9989 175.9615 0002915 269.3685  90.7140 14.98334961 42793,6950.178,96.107,574.069,570.017,0.0
55929.0,STARLINK-5898,PAYLOAD,2023-12-25 14:04:54,14.98344937,0.0003153,69.9989,174.2788,267.1753,92.9045,0.00012015,1.341e-05,0.0,0 STARLINK-5898,1 55929U 23037R   23359.58674551  .00001341  00000-0  12015-3 0  9999,2 55929  69.9989 174.2788 0003153 267.1753  92.9045 14.98344937 42896,6950.147,96.106,574.203,569.82,0.0
55929.0,STARLINK-5898,PAYLOAD,2023-12-25 22:05:34,14.98347703,0.0003129,69.999,173.4374,267.2234,92.8567,0.00014237,1.607e-05,0.0,0 STARLINK-5898,1 55929U 23037R   23359.92053988  .00001607  00000-0  14237-3 0  9995,2 55929  69.9990 173.4374 0003129 267.2234  92.8567 14.98347703 42946,6950.138,96.106,574.178,569.828,0.0
55929.0,STARLINK-5898,PAYLOAD,2023-12-26 10:54:39,14.98340598,0.000286,69.9999,172.0917,265.1912,94.892,8.0236e-06,3e-08,0.0,0 STARLINK-5898,1 55929U 23037R   23360.45462380  .00000003  00000-0  80236-5 0  9998,2 55929  69.9999 172.0917 0002860 265.1912  94.8920 14.98340598 43361,6950.16,96.106,574.013,570.037,0.0
